{
    "links": {
        "self": "http://www.neowsapp.com/rest/v1/neo/3843277?api_key=iIulBulltgU6a56xZRHN4H3l9WmuAYTsLGpBGhQ2"
    },
    "id": "3843277",
    "neo_reference_id": "3843277",
    "name": "(2019 NY5)",
    "designation": "2019 NY5",
    "nasa_jpl_url": "http://ssd.jpl.nasa.gov/sbdb.cgi?sstr=3843277",
    "absolute_magnitude_h": 22.9,
    "estimated_diameter": {
        "kilometers": {
            "estimated_diameter_min": 0.0699125232,
            "estimated_diameter_max": 0.1563291544
        },
        "meters": {
            "estimated_diameter_min": 69.9125232246,
            "estimated_diameter_max": 156.3291544087
        },
        "miles": {
            "estimated_diameter_min": 0.0434416145,
            "estimated_diameter_max": 0.097138403
        },
        "feet": {
            "estimated_diameter_min": 229.3718026961,
            "estimated_diameter_max": 512.8909429502
        }
    },
    "is_potentially_hazardous_asteroid": false,
    "close_approach_data": [
        {
            "close_approach_date": "2019-06-28",
            "close_approach_date_full": "2019-Jun-28 23:17",
            "epoch_date_close_approach": 1561763820000,
            "relative_velocity": {
                "kilometers_per_second": "8.4206343304",
                "kilometers_per_hour": "30314.2835896156",
                "miles_per_hour": "18836.1169337809"
            },
            "miss_distance": {
                "astronomical": "0.0947714428",
                "lunar": "36.8660912492",
                "kilometers": "14177605.979706836",
                "miles": "8809555.8512568968"
            },
            "orbiting_body": "Earth"
        }
    ],
    "orbital_data": {
        "orbit_id": "3",
        "orbit_determination_date": "2019-08-05 05:59:23",
        "first_observation_date": "2019-07-08",
        "last_observation_date": "2019-08-04",
        "data_arc_in_days": 27,
        "observations_used": 29,
        "orbit_uncertainty": "7",
        "minimum_orbit_intersection": ".04507",
        "jupiter_tisserand_invariant": "4.126",
        "epoch_osculation": "2459000.5",
        "eccentricity": ".450087037333307",
        "semi_major_axis": "1.666368268308175",
        "inclination": "6.966339216778637",
        "ascending_node_longitude": "130.6844005319041",
        "orbital_period": "785.6966607358167",
        "perihelion_distance": ".9163575113191154",
        "perihelion_argument": "109.8230450050578",
        "aphelion_distance": "2.416379025297235",
        "perihelion_time": "2458632.519612394632",
        "mean_anomaly": "168.6057051761803",
        "mean_motion": ".4581920962510577",
        "equinox": "J2000",
        "orbit_class": {
            "orbit_class_type": "APO",
            "orbit_class_description": "Near-Earth asteroid orbits which cross the Earth’s orbit similar to that of 1862 Apollo",
            "orbit_class_range": "a (semi-major axis) > 1.0 AU; q (perihelion) < 1.017 AU"
        }
    },
    "is_sentry_object": false
}